O3B FM5                 
1 39188U 13031A   26115.66874571 -.00000027  00000+0  00000+0 0  9994
2 39188   0.1023   0.2289 0003142  23.5681 336.2158  5.00116470234419
O3B FM4                 
1 39189U 13031B   26115.58814672 -.00000027  00000+0  00000+0 0  9992
2 39189   0.0495 345.9615 0005144  48.3614 325.7086  5.00115164234411
O3B FM2                 
1 39190U 13031C   26115.65374149 -.00000027  00000+0  00000+0 0  9992
2 39190   0.0473 339.2136 0002788  53.0257 327.7759  5.00115967234487
O3B PFM                 
1 39191U 13031D   26113.46906767 -.00000026  00000+0  00000+0 0  9996
2 39191   0.0700 358.7224 0004841  42.5713 318.7416  5.00115912233936
O3B FM3                 
1 40079U 14038A   26115.53461705 -.00000027  00000+0  00000+0 0  9990
2 40079   0.0515 355.3020 0001396 105.0225 259.6893  5.00115585210415
O3B FM7                 
1 40080U 14038B   26115.08093563 -.00000027  00000+0  00000+0 0  9995
2 40080   0.0544 347.6471 0004218  28.2337 344.1306  5.00115615215226
O3B FM6                 
1 40081U 14038C   26115.70760148 -.00000027  00000+0  00000+0 0  9995
2 40081   0.0521 352.0239 0002643  41.6225 326.3686  5.00115683215205
O3B FM8                 
1 40082U 14038D   26114.96132753 -.00000027  00000+0  00000+0 0  9998
2 40082   0.0525 351.0264 0002705  46.0546 322.9359  5.00115952215287
O3B FM10                
1 40348U 14083A   26115.58813625 -.00000027  00000+0  00000+0 0  9996
2 40348   0.0389 337.7556 0002654  57.6099 324.6504  5.00115287207260
O3B FM11                
1 40349U 14083B   26115.80071183 -.00000027  00000+0  00000+0 0  9997
2 40349   0.0578 359.3740 0002920  21.6263 339.0099  5.00115566207287
O3B FM12                
1 40350U 14083C   26115.62787834 -.00000027  00000+0  00000+0 0  9996
2 40350   0.0570 359.0098 0002564  31.7513 329.2522  5.00115921207296
O3B FM9                 
1 40351U 14083D   26115.65471021 -.00000027  00000+0  00000+0 0  9998
2 40351   0.0590 359.1750 0002708  34.7092 326.1314  5.00115907207446
LEO 1 (LEO VANTAGE 1)   
1 43113U 18004C   26115.75427413  .00001669  00000+0  12187-3 0  9996
2 43113  99.2450  27.2062 0350178 240.3062 116.2858 14.67560438429799
O3B FM15                
1 43231U 18024A   26115.72149344 -.00000027  00000+0  00000+0 0  9995
2 43231   0.0510   4.1856 0002640  27.8727 327.9560  5.00115745148407
O3B FM16                
1 43232U 18024B   26115.57395656 -.00000027  00000+0  00000+0 0  9998
2 43232   0.0487   8.2237 0002686  22.2350 329.5551  5.00115813148314
O3B FM14                
1 43233U 18024C   26115.01506422 -.00000027  00000+0  00000+0 0  9993
2 43233   0.0471   8.1994 0002861  26.7396 325.0779  5.00115692148296
O3B FM13                
1 43234U 18024D   26115.08092587 -.00000027  00000+0  00000+0 0  9993
2 43234   0.0559 329.1327 0003596  20.8365  10.0218  5.00115557148409
O3B FM20                
1 44112U 19020A   26115.64077483 -.00000027  00000+0  00000+0 0  9996
2 44112   0.0532   1.2981 0002590  23.0291 335.6833  5.00115501128941
O3B FM19                
1 44113U 19020B   26111.67003593 -.00000022  00000+0  00000+0 0  9992
2 44113   0.0716 348.2754 0003491  26.5306 345.2041  5.00115966128611
O3B FM17                
1 44114U 19020C   26115.34817455 -.00000027  00000+0  00000+0 0  9996
2 44114   0.0342 354.8678 0002609  36.6567 328.4893  5.00115482128886
O3B FM18                
1 44115U 19020D   26115.69426773 -.00000027  00000+0  00000+0 0  9994
2 44115   0.0537   1.5150 0002734  34.2778 324.2238  5.00115236129022
SALSAT                  
1 46495U 20068K   26115.73859803  .00008478  00000+0  30336-3 0  9996
2 46495  97.8866 115.6436 0011520 121.8273 238.4089 15.29000493307347
O3B MPOWER F1           
1 54755U 22174A   26115.65297668 -.00000027  00000+0  00000+0 0  9994
2 54755   0.0598 347.3990 0005969  66.0147  92.0009  5.00114823 62730
O3B MPOWER F2           
1 54756U 22174B   26115.53887779 -.00000027  00000+0  00000+0 0  9990
2 54756   0.0564 345.0501 0005938  47.5246 327.4601  5.00115368 62803
O3B MPOWER F4           
1 56367U 23059A   26115.80308457 -.00000027  00000+0  00000+0 0  9994
2 56367   0.0649   2.6449 0007251  44.1224 313.2915  5.00115881 55974
O3B MPOWER F3           
1 56368U 23059B   26115.63646530 -.00000027  00000+0  00000+0 0  9993
2 56368   0.0660   2.4125 0006648  34.4896 323.1418  5.00116604 52107
O3B MPOWER F9           
1 64866U 25153A   26115.60468566 -.00000027  00000+0  00000+0 0  9990
2 64866   0.0539  15.2808 0005549  44.4071 300.3651  5.00116067 16939
O3B MPOWER F10          
1 64867U 25153B   26115.37069255 -.00000027  00000+0  00000+0 0  9997
2 64867   0.0538  10.3189 0002819 261.8403  87.8067  5.00114865 19393
